ONEWEB-0451             
1 51643U 22012X   22338.58334491  .00000013  00000+0  00000+0 0  9993
2 51643  87.9180 262.3033 0002234  73.5298 235.2364 13.20449084  1302
ONEWEB-0452             
1 51644U 22012Y   22338.58334491  .00014652  00000+0  37658-1 0  9999
2 51644  87.9106 262.2814 0001448 112.5494 210.3380 13.17621703  1303
ONEWEB-0455             
1 51645U 22012Z   22338.57684459  .00000224  00000+0  92772-4 0  9992
2 51645  87.5280 275.3697 0017548   9.0524 351.0979 14.22340532 42609
ONEWEB-0456             
1 51646U 22012AA  22338.58334491 -.00028849  00000+0 -82927-1 0  9995
2 51646  87.8764 292.7877 0002258  81.6368 220.8692 13.10381253  1305
ONEWEB-0457             
1 51647U 22012AB  22338.58334491 -.00027211  00000+0 -78208-1 0  9995
2 51647  87.8849 292.7399 0001405  62.4811 342.8917 13.10381078  1302
ONEWEB-0458             
1 51648U 22012AC  22338.58334491 -.00028663  00000+0 -82394-1 0  9999
2 51648  87.8713 292.7644 0001979  95.1464 214.8084 13.10379564  1309
ONEWEB-0461             
1 51649U 22012AD  22338.58334491  .00015558  00000+0  32692-1 0  9993
2 51649  87.9610 262.1465 0002941  81.6915 164.6253 13.31108965  1308
ONEWEB-0463             
1 51650U 22012AE  22338.58334491  .00014448  00000+0  37087-1 0  9995
2 51650  87.9097 262.3101 0000856 187.2031 119.4317 13.17708765  1300
ONEWEB-0464             
1 51651U 22012AF  22338.58334491 -.00028337  00000+0 -81454-1 0  9997
2 51651  87.8750 292.7613 0002321  94.9070 229.6937 13.10379493  1304
ONEWEB-0468             
1 51652U 22012AG  22338.58334491 -.00028991  00000+0 -83335-1 0  9994
2 51652  87.8759 292.7795 0001852  82.9743 212.2867 13.10382291  1307
ONEWEB-0473             
1 51653U 22012AH  22338.58334491 -.00027618  00000+0 -79388-1 0  9993
2 51653  87.8705 292.7692 0002033  95.7403 265.5361 13.10374808  1318
ONEWEB-0474             
1 51654U 22012AJ  22338.58334491 -.00027239  00000+0 -78291-1 0  9995
2 51654  87.8741 292.7580 0002303  94.4230 303.5671 13.10378412  1300
ONEWEB-0475             
1 51655U 22012AK  22338.58334491  .00000013  00000+0  00000+0 0  9996
2 51655  87.9597 262.2861 0002499 102.8747  34.8323 13.30956705  1305
ONEWEB-0490             
1 54113U 22138A   22338.58334491 -.01088755  00000+0 -36883+0 0  9997
2 54113  87.5293 203.3938 0014210 130.8638 358.8878 14.39852868  1300
ONEWEB-0492             
1 54114U 22138B   22338.58334491 -.01095016  00000+0 -36177+0 0  9992
2 54114  87.5344 203.3958 0015111 137.0812  28.2612 14.41108188  1300
ONEWEB-0495             
1 54115U 22138C   22338.58334491 -.01019469  00000+0 -38407+0 0  9999
2 54115  87.4900 203.4012 0014891 154.2380 240.3400 14.34819180  1300
ONEWEB-0497             
1 54116U 22138D   22338.58334491 -.01103871  00000+0 -39616+0 0  9994
2 54116  87.5047 203.3949 0016506 140.1944 110.6453 14.36987363  1305
ONEWEB-0499             
1 54117U 22138E   22338.58334491 -.01103290  00000+0 -38175+0 0  9999
2 54117  87.5204 203.3994 0015232 134.9050 248.3054 14.38828787  1307
ONEWEB-0500             
1 54118U 22138F   22338.58334491 -.01079377  00000+0 -35468+0 0  9990
2 54118  87.5459 203.3847 0012346 128.4778 165.3595 14.41354653  1303
ONEWEB-0501             
1 54119U 22138G   22338.58334491 -.01092171  00000+0 -39317+0 0  9995
2 54119  87.5062 203.3928 0016791 144.2681  41.7104 14.36796839  1304
ONEWEB-0502             
1 54120U 22138H   22338.58334491 -.01087610  00000+0 -36457+0 0  9991
2 54120  87.5330 203.3877 0013301 127.5818  73.3884 14.40382695  1309
ONEWEB-0503             
1 54121U 22138J   22338.58334491 -.01098332  00000+0 -38406+0 0  9991
2 54121  87.5173 203.3915 0015735 134.8255 240.3835 14.38283176  1300
ONEWEB-0504             
1 54122U 22138K   22338.58334491 -.01075506  00000+0 -35547+0 0  9993
2 54122  87.5325 203.3915 0013033 129.9516 116.9832 14.41050238  1304
ONEWEB-0505             
1 54123U 22138L   22338.58334491 -.01080598  00000+0 -39277+0 0  9995
2 54123  87.5044 203.3950 0015448 151.9998 318.8104 14.36291588  1307
ONEWEB-0506             
1 54124U 22138M   22338.58334491 -.01074036  00000+0 -38608+0 0  9993
2 54124  87.5104 203.4085 0017487 152.6531   9.9354 14.36812081  1303
ONEWEB-0507             
1 54125U 22138N   22338.58334491 -.01074958  00000+0 -34362+0 0  9990
2 54125  87.5474 203.3807 0012088 132.4179 265.1785 14.42707334  1306
ONEWEB-0508             
1 54126U 22138P   22338.58334491 -.01074054  00000+0 -36078+0 0  9994
2 54126  87.5328 203.3961 0014256 133.0088  18.6701 14.40232817  1307
ONEWEB-0509             
1 54127U 22138Q   22338.58334491 -.01091924  00000+0 -39496+0 0  9997
2 54127  87.5028 203.3889 0016402 142.0160  66.2899 14.36559810  1307
ONEWEB-0510             
1 54128U 22138R   22338.58334491  .00038685  00000+0  65966-2 0  9994
2 54128  86.9369 202.0754 0011717 141.7586 193.2302 14.68755641  1303
ONEWEB-0511             
1 54129U 22138S   22338.58334491 -.01069366  00000+0 -35616+0 0  9994
2 54129  87.5334 203.3819 0012684 128.1176  77.0135 14.40655233  1306
ONEWEB-0512             
1 54130U 22138T   22338.58334491 -.01100117  00000+0 -39683+0 0  9994
2 54130  87.5064 203.3867 0016375 141.3511  81.7638 14.36721648  1301
ONEWEB-0513             
1 54131U 22138U   22338.58334491  .00000017  00000+0  00000+0 0  9991
2 54131  87.5915 204.1465 0013157 141.0400 212.5396 13.95813836  1309
ONEWEB-0514             
1 54132U 22138V   22338.58334491 -.01090567  00000+0 -36527+0 0  9997
2 54132  87.5321 203.3784 0013608 132.1744  85.0551 14.40428199  1300
ONEWEB-0515             
1 54133U 22138W   22338.58334491  .00039164  00000+0  66746-2 0  9990
2 54133  86.9118 202.0376 0012619 135.1951 165.1462 14.68770182  1308
ONEWEB-0516             
1 54134U 22138X   22338.58334491 -.01074770  00000+0 -36079+0 0  9999
2 54134  87.5347 203.3903 0013386 129.7875  47.8396 14.40273646  1301
ONEWEB-0517             
1 54135U 22138Y   22338.58334491 -.01076646  00000+0 -36756+0 0  9996
2 54135  87.5248 203.3875 0015138 135.4200 306.7058 14.39425341  1304
ONEWEB-0518             
1 54136U 22138Z   22338.58334491 -.01097317  00000+0 -38625+0 0  9992
2 54136  87.5141 203.4006 0017029 137.1806 169.8740 14.37936818  1306
ONEWEB-0519             
1 54137U 22138AA  22338.58334491 -.01083386  00000+0 -35093+0 0  9990
2 54137  87.5419 203.3911 0013653 130.4811 206.4863 14.42065356  1300
ONEWEB-0520             
1 54138U 22138AB  22338.58334491 -.01079322  00000+0 -36817+0 0  9991
2 54138  87.5310 203.3999 0015160 132.2578 325.2679 14.39473760  1305
ONEWEB-0521             
1 54139U 22138AC  22338.58334491 -.01089385  00000+0 -39710+0 0  9997
2 54139  87.4958 203.3935 0015952 154.0852 265.0975 14.36167286  1309
ONEWEB-0522             
1 54140U 22138AD  22338.58334491 -.01055818  00000+0 -38233+0 0  9992
2 54140  87.5097 203.4066 0016925 144.2328  60.4800 14.36921315  1307
ONEWEB-0523             
1 54141U 22138AE  22338.58334491  .00038743  00000+0  65414-2 0  9992
2 54141  86.9104 202.0425 0011771 141.3738 186.2802 14.69192998  1303
ONEWEB-0524             
1 54142U 22138AF  22338.58334491  .00038724  00000+0  65934-2 0  9999
2 54142  86.9121 202.0397 0011443 142.4906 184.0862 14.68823642  1304
ONEWEB-0525             
1 54143U 22138AG  22338.58334491 -.01079598  00000+0 -37309+0 0  9999
2 54143  87.5176 203.3927 0014242 130.7390 258.9727 14.38832548  1305
ONEWEB-0526             
1 54144U 22138AH  22338.58334491 -.01092903  00000+0 -39402+0 0  9991
2 54144  87.5029 203.3879 0016789 145.0746  33.5365 14.36723928  1305
ONEWEB-0529             
1 54145U 22138AJ  22338.58334491 -.01079405  00000+0 -37426+0 0  9998
2 54145  87.5209 203.3949 0015805 142.6654 182.6393 14.38652852  1309
ONEWEB-0531             
1 54146U 22138AK  22338.58334491  .00039107  00000+0  66601-2 0  9991
2 54146  86.9083 202.0454 0011909 140.8266 168.2602 14.68808185  1308
ONEWEB-0535             
1 54147U 22138AL  22338.58334491 -.01091061  00000+0 -34877+0 0  9999
2 54147  87.5434 203.3891 0012801 128.9420 226.4804 14.42746976  1308
ONEWEB-0536             
1 54148U 22138AM  22338.58334491  .00039345  00000+0  66630-2 0  9999
2 54148  86.9163 202.0806 0011771 135.6283 157.8240 14.69056454  1305
GSLV R/B                
1 54149U 22138AN  22338.13843112  .00000957  00000+0  10234-3 0  9993
2 54149  87.3883 203.0333 0027244 127.0966 233.2757 14.87332419  6306
